; EDGE FLIP of one card. DESIGN ONLY: never run on the rig. Dry-run it with NO card and the magnet unplugged first.
; Generated by hardware/gantry/flip_path.py. X/Y = carriage, Z = nozzle height (mm); M106 S255 = magnet on, M107 = off (table/gantry.py).
; card 92.5 x 66.5 x 1.6 (TBD) mm, washer 33.25 mm from the pivot edge, fence at X150.0 Y140.0
; The head must have a passive pitch hinge (axis parallel to X) or the card cannot be turned: see the README.
G90
M107
; over the card, magnet off
G1 X150.00 Y181.25 Z54.60 F3000
M400
M107
; down onto the washer
G1 X150.00 Y181.25 Z29.60 F300
M400
M107
; magnet on, hold
G1 X150.00 Y181.25 Z29.60 F300
M400
M106 S255
G4 P300
; drag the edge into the fence face
G1 X150.00 Y172.75 Z29.60 F600
M400
M106 S255
; arc 10 deg  (head pitch 10 deg)
G1 X150.00 Y169.49 Z35.05 F900
M400
M106 S255
; arc 20 deg  (head pitch 20 deg)
G1 X150.00 Y164.61 Z39.67 F900
M400
M106 S255
; arc 30 deg  (head pitch 30 deg)
G1 X150.00 Y158.97 Z43.33 F900
M400
M106 S255
; arc 40 deg  (head pitch 40 deg)
G1 X150.00 Y152.79 Z45.92 F900
M400
M106 S255
; arc 50 deg  (head pitch 50 deg)
G1 X150.00 Y146.18 Z47.36 F900
M400
M106 S255
; arc 60 deg  (head pitch 60 deg)
G1 X150.00 Y139.39 Z47.60 F900
M400
M106 S255
; arc 70 deg  (head pitch 70 deg)
G1 X150.00 Y132.64 Z46.63 F900
M400
M106 S255
; arc 80 deg  (head pitch 80 deg)
G1 X150.00 Y126.11 Z44.50 F900
M400
M106 S255
; arc 90 deg  (head pitch 90 deg)
G1 X150.00 Y120.49 Z41.25 F900
M400
M106 S255
; arc 100 deg  (head pitch 100 deg)
G1 X150.00 Y115.64 Z37.27 F900
M400
M106 S255
; arc 110 deg, magnet off  (head pitch 110 deg)
G1 X150.00 Y111.60 Z32.40 F900
M400
M107
G4 P600
; rise straight up; the head springs level
G1 X150.00 Y111.60 Z67.40 F1500
M400
M107
; clear: back over the card side
G1 X150.00 Y156.60 Z67.40 F3000
M400
M107
M107
